#cP2018 12 21  0  0  0.00000000      96   u+U IGS14 FIT  JPL
## 2032 432000.00000000   900.00000000 58473 0.0000000000000
+   29   G01G02G03G05G06G07G08G09G10G11G12G13G14G15G17G19G20
+        G21G22G23G24G25G26G27G28G29G30G31G32  0  0  0  0  0
+          0  0  0  0  0  0  0  0  0  0  0  0  0  0  0  0  0
+          0  0  0  0  0  0  0  0  0  0  0  0  0  0  0  0  0
+          0  0  0  0  0  0  0  0  0  0  0  0  0  0  0  0  0
++         4  3  3  3  3  3  3  3  3  3  3  3  3  3  3  3  3
++         3  3  3  3  3  4  3  3  3  3  3  3  0  0  0  0  0
++         0  0  0  0  0  0  0  0  0  0  0  0  0  0  0  0  0
++         0  0  0  0  0  0  0  0  0  0  0  0  0  0  0  0  0
++         0  0  0  0  0  0  0  0  0  0  0  0  0  0  0  0  0
%c G  cc GPS ccc cccc cccc cccc cccc ccccc ccccc ccccc ccccc
%c cc cc ccc ccc cccc cccc cccc cccc ccccc ccccc ccccc ccccc
%f  1.2500000  1.025000000  0.00000000000  0.000000000000000
%f  0.0000000  0.000000000  0.00000000000  0.000000000000000
%i    0    0    0    0      0      0      0      0         0
%i    0    0    0    0      0      0      0      0         0
/*                                                          
/* JET PROPULSION LABORATORY                                
/*                                                          
/* PCV:igs14_2022 OL/AL:GOT4.8AC NONE     YN ORB:CoN CLK:CoN
*  2018 12 21 15  0  0.00000000
PG01 -13545.537996  22586.404000  -1881.268983   -132.646320  8  9  7 193
PG02  18392.541288  -8378.653224 -16535.065771    -92.013282  9  9  9 194
PG03 -11173.989963  13352.645495 -20075.557253    171.167896  8  7  7 192
PG05  25854.447509  -3115.181593   5619.740602      0.274284  7  8  8 191
PG06  13830.548268   5977.413391 -21838.465567    311.987801  7  8  8 193
PG07  -2121.206254  21783.729349  14955.112678     66.211412  8  7  8 191
PG08 -11187.585984  10656.117083  21634.246804   -126.568108  8  8  7 191
PG09   6156.519392  24529.543105  -8151.864177    480.588467  7  6  7 192
PG10 -19210.487668 -11307.472516  14625.891215    148.058305  8  8  8 191
PG11  -9579.677367  23491.226443   7691.263727   -686.049442  8  9  7 192
PG12  14864.410501 -10984.246122 -19200.135762    282.520646  9  9  7 193
PG13  15036.332458  -2245.967250  21662.932580    -81.098338  7  7  6 190
PG14 -16892.294963 -13885.609756 -14897.666009    -94.542219  8  8  8 193
PG15   8886.045102 -14367.990895  20160.880783   -335.615513  7  7  6 190
PG17  14272.037573  21253.705507  -6872.891409    -15.810212  7  7  7 192
PG19  16580.888997  13577.920637 -15906.689183   -371.808095  8  8  7 192
PG20 -10197.189653 -14272.529203  19857.521428    519.998679  8  7  7 190
PG21  -2062.296058 -20893.801208  17118.010490   -283.595187  7  7  7 190
PG22 -18465.844636  11430.689174 -15029.964951   -604.280307  8  8  7 192
PG23  -2057.682039  20833.617635 -15793.276129   -203.107424  8  7  7 192
PG24  15336.488023 -21205.351865   3230.099336    -60.007682  9  8  8 192
PG25   2542.896979 -14894.438330 -22022.843470   -694.680305  9  9  7 193
PG26 -25951.871204  -4118.900969  -4450.055740     73.848308  8  8  8 192
PG27 -16138.945454   -504.749241  21059.909092    -36.074818  8  8  7 191
PG28  16402.365687  13532.899425  16486.899977    759.098459  7  7  7 191
PG29  -2509.033758 -24173.905957 -10730.689696    310.438505  9  8  8 192
PG30   7403.642825  15134.345296  20511.948959    -23.496222  7  7  7 191
PG31 -15879.485613  -3039.068428 -21132.870576     71.072275  8  8  7 192
PG32 -16595.042964 -18811.660887  -8845.008187   -309.530083  8  8  8 193
*  2018 12 21 15 15  0.00000000
PG01 -13766.550397  22485.981476   1018.750456   -132.651763  7  9  7 193
PG02  17566.377982  -6437.316423 -18182.836783    -92.022610  8  9  9 194
PG03 -13387.979586  13176.102959 -18788.177928    171.170610  8  8  7 192
PG05  26350.094248  -2843.698104   2854.875726      0.274376  7  8  8 192
PG06  12529.845078   8122.051676 -21929.018110    311.981312  7  8  8 193
PG07  -3153.121812  22983.207862  12740.975412     66.205164  8  8  8 192
PG08 -12423.909237   8505.864218  21926.185834   -126.570024  8  8  7 192
PG09   5412.033055  23714.936122 -10705.976609    480.584784  7  7  7 192
PG10 -17433.902694 -11428.942194  16610.611990    148.053159  8  8  7 191
PG11  -9811.179153  22365.854191  10160.600095   -686.045024  8  8  7 192
PG12  16914.344701 -10685.606275 -17571.739757    282.518032  9  9  7 193
PG13  15904.512055     69.822957  21158.828209    -81.097206  7  8  6 190
PG14 -17372.629367 -15444.382785 -12709.147935    -94.541645  8  8  8 193
PG15  10303.678060 -12411.532743  20803.806755   -335.614478  7  7  6 190
PG17  14395.969466  21937.161165  -4069.646072    -15.805786  7  7  8 192
PG19  17087.145991  15156.484935 -13750.647339   -371.804634  7  8  7 192
PG20  -7864.090159 -14577.502648  20663.834752    519.999031  8  7  7 190
PG21  -1090.815554 -22323.580688  15212.175055   -283.588960  7  8  7 190
PG22 -20121.366513  11223.731565 -12944.535858   -604.288424  8  8  7 192
PG23  -3222.756565  19217.142126 -17555.482872   -203.106584  8  7  6 192
PG24  15362.846752 -20563.095446   5995.969517    -60.007285  9  8  7 192
PG25   4997.688857 -14784.305649 -21648.707100   -694.685248  9  9  8 194
PG26 -25288.788222  -4369.904137  -7177.623480     73.857824  8  9  8 192
PG27 -17215.102890  -2604.444542  20056.641910    -36.080262  8  8  7 191
PG28  14521.644818  13423.164470  18315.934576    759.099071  7  7  7 191
PG29  -1795.221936 -23003.940469 -13172.193679    310.431445  9  9  8 193
PG30   6015.897704  16966.806080  19490.849799    -23.501504  7  7  8 191
PG31 -14564.175363  -5099.573374 -21637.759446     71.069688  8  9  7 192
PG32 -16797.475058 -19684.970663  -6180.143671   -309.515781  8  8  8 193
*  2018 12 21 15 30  0.00000000
PG01 -13836.362014  22106.174276   3900.871612   -132.657275  7  9  7 192
PG02  16764.563300  -4299.690187 -19500.496531    -92.031844  8  9  9 193
PG03 -15445.032431  13110.138626 -17177.767725    171.173427  8  8  7 192
PG05  26544.990766  -2581.350197     41.387188      0.274690  7  8  8 192
PG06  11352.137024  10324.119526 -21640.969183    311.974922  7  8  7 192
PG07  -3997.699773  24004.669641  10305.281225     66.198692  8  8  8 192
PG08 -13779.205652   6416.617459  21842.462590   -126.571760  8  8  7 191
PG09   4477.805886  22704.783965 -13076.171069    480.581164  8  7  7 192
PG10 -15457.722605 -11651.383991  18312.501776    148.048054  8  8  7 191
PG11 -10078.809781  20979.421346  12452.882228   -686.040485  8  8  7 192
PG12  18779.145936 -10507.531542 -15643.270755    282.515071  9  9  7 193
PG13  16860.769302   2264.795512  20286.917322    -81.096015  7  8  6 190
PG14 -17813.712621 -16740.908785 -10300.206621    -94.541334  8  8  8 193
PG15  11838.699299 -10482.916420  21079.116909   -335.612907  7  7  6 190
PG17  14404.123648  22327.975024  -1196.252754    -15.801002  7  7  8 192
PG19  17566.340103  16477.225096 -11360.629021   -371.800966  7  8  7 192
PG20  -5476.115748 -15002.126955  21111.466305    519.999705  8  7  6 190
PG21   -284.204375 -23601.501925  13058.123087   -283.582789  7  8  7 191
PG22 -21535.183848  11070.459231 -10632.948055   -604.296827  7  8  7 192
PG23  -4562.865633  17504.155752 -19003.980883   -203.105566  7  7  6 192
PG24  15287.114701 -19643.563858   8656.258971    -60.008852  9  8  7 191
PG25   7394.924266 -14805.593884 -20907.363047   -694.690098  9  9  8 193
PG26 -24339.312830  -4671.126276  -9782.870694     73.867398  8  9  8 192
PG27 -18333.029462  -4526.286647  18708.222235    -36.085745  8  8  7 191
PG28  12455.825471  13409.275134  19843.394134    759.100102  7  7  7 191
PG29   -891.901956 -21643.239318 -15387.233417    310.423899 10  9  8 193
PG30   4787.761043  18750.939937  18133.306416    -23.506748  7  7  8 191
PG31 -13338.590907  -7261.291266 -21771.017723     71.067556  8  9  7 192
PG32 -16881.116535 -20286.671311  -3409.445639   -309.501460  8  8  8 192
EOF
